1 45854U 20041A   22282.56379384 -.00000011  00000-0  00000-0 0  9997
2 45854  55.6124  81.7833 0027310 178.3779 175.6011  2.00569245 17020